    meananomaly => '184.5577'
  },
  'OKEAN-0' => {
    elset => 658,
    epoch => '6032.92677884',
    bstar => '2.0299e-05',
    number => 99039,
    inclination => '97.7416',
    mm1 => '8.5e-07',
    raan => '53.5098',
    eccentricity => '0.0001086',
    mm2 => 0,
    argperigee => '116.0529',
    orbit => 35183,
    meanmotion => '14.73334921',
    id => 25860,
    meananomaly => '244.079'
  },
  'PO-28' => {
    elset => 292,
    epoch => '6033.58723786',
    bstar => '-3.5413e-06',
    number => 93061,
    inclination => '98.2558',
    mm1 => '-5e-07',
    raan => '24.5597',
    eccentricity => '0.0008913',
    mm2 => 0,
    argperigee => '276.8695',
    orbit => 64440,
    meanmotion => '14.30091146',
    id => 22829,
    meananomaly => '83.1456'
  },
  'NOAA-15' => {
    elset => 383,
    epoch => '6033.31020929',
    bstar => '4.287e-05',
    number => 98030,
    inclination => '98.5154',
    mm1 => '5.7e-07',
    raan => '39.6537',
    eccentricity => '0.0011381',
    mm2 => 0,
    argperigee => '49.9851',
    orbit => 40151,
    meanmotion => '14.24561975',
    id => 25338,
    meananomaly => '310.2325'
  },
  'SICH-1' => {
    elset => 661,
    epoch => '6032.77820308',
    bstar => '1.8715e-05',
    number => 95046,
    inclination => '82.528',
    mm1 => '1.71e-06',
    raan => '184.1619',
    eccentricity => '0.002571',
    mm2 => 0,
    argperigee => '87.9863',
    orbit => 56194,
    meanmotion => '14.81307006',
    id => 23657,
    meananomaly => '272.4273'
  },
  'NOAA-16' => {
    elset => 733,
    epoch => '6033.32901266',
    bstar => '-3.3782e-05',
    number => 55,
    inclination => '99.0504',
    mm1 => '-1.08e-06',
    raan => '358.4905',
    eccentricity => '0.0010827',
    mm2 => 0,
    argperigee => '135.9537',
    orbit => 27654,
    meanmotion => '14.12310739',
    id => 26536,
    meananomaly => '224.2526'
  },
  'RS-15' => {
    elset => 932,
    epoch => '6032.67247187',
    bstar => '0.00010597',
    number => 94085,
    inclination => '64.8184',
    mm1 => '-3.9e-07',
    raan => '96.4029',
    eccentricity => '0.0167682',
    mm2 => 0,
    argperigee => '277.0608',
    orbit => 45726,
    meanmotion => '11.2755154',
    id => 23439,
    meananomaly => '81.1273'
  },
  'UO-22' => {
    elset => 617,
    epoch => '6032.85889167',
    bstar => '2.3718e-06',
    number => 91050,
    inclination => '98.2775',
    mm1 => '-3.5e-07',
    raan => '354.9507',
    eccentricity => '0.0008095',
    mm2 => 0,
    argperigee => '112.8499',
    orbit => 76354,
    meanmotion => '14.39531773',
    id => 21575,
    meananomaly => '247.3543'
  },
  'AO-10' => {
    elset => 255,
    epoch => '6031.81300958',
    bstar => '0.0001',
    number => 83058,
    inclination => '27.4692',
    mm1 => '-3.36e-06',
    raan => '351.3227',
    eccentricity => '0.6031734',
    mm2 => 0,
    argperigee => '257.9867',
    orbit => 17024,
    meanmotion => '2.05869523',
    id => 14129,
    meananomaly => '32.5117'
  },
  FENGYUN1 => {
    elset => 640,
    epoch => '6033.53813497',
    bstar => '0.00013794',
    number => 99025,
    inclination => '98.6185',
    mm1 => '2.1e-06',
    raan => '31.2271',
    eccentricity => '0.0014425',
    mm2 => 0,
    argperigee => '161.0776',
    orbit => 34701,
    meanmotion => '14.11807504',
    id => 25730,
    meananomaly => '199.093'
  },
  'NOAA-12' => {
    elset => 464,
    epoch => '6033.47872832',
    bstar => '-2.9593e-05',
    number => 91032,
    inclination => '98.7217',
    mm1 => '-1.14e-06',
    raan => '27.3885',
    eccentricity => '0.0013505',
    mm2 => 0,
    argperigee => '117.9605',
    orbit => 76505,
    meanmotion => '14.25481816',
    id => 21263,
    meananomaly => '242.2946'
  },
  'NOAA-18' => {
    elset => 344,
    epoch => '6033.47073298',
    bstar => '0.00021919',
    number => 5018,
    inclination => '98.7753',
    mm1 => '3.5e-06',
    raan => '339.733',
    eccentricity => '0.0013644',
    mm2 => 0,
    argperigee => '242.4779',
    orbit => 3638,
    meanmotion => '14.10927826',
    id => 28654,
    meananomaly => '117.5017'
  },
  'UO-11' => {
    elset => 985,
    epoch => '6032.57470057',
    bstar => '5.9467e-06',
    number => 84021,
    inclination => '98.2091',
    mm1 => '-1.1e-07',
    raan => '39.9004',
    eccentricity => '0.000898',
    mm2 => 0,
    argperigee => '348.0155',
    orbit => 17571,
    meanmotion => '14.79375203',
    id => 14781,
    meananomaly => '12.0849'
  },
  'NOAA-17' => {
    elset => 757,
    epoch => '6033.45197992',
    bstar => '0.00013097',
    number => 2032,
    inclination => '98.637',
    mm1 => '2.56e-06',
    raan => '108.2071',
    eccentricity => '0.001262',
    mm2 => 0,
    argperigee => '106.517',
    orbit => 18760,
    meanmotion => '14.23747969',
    id => 27453,
    meananomaly => '253.7402'
  },
  UARS => {
    elset => 678,
    epoch => '6033.28720107',
    bstar => '0.00010225',
    number => 91063,
    inclination => '56.981',
    mm1 => '4.895e-05',
    raan => '313.1676',
    eccentricity => '0.0103108',
    mm2 => 0,
    argperigee => '312.9644',
    orbit => 78848,
    meanmotion => '15.4204012',
    id => 21701,
    meananomaly => '46.2767'
  },
  'GO-32' => {
    elset => 939,
    epoch => '6033.75858663',
    bstar => '3.0713e-05',
    number => 98043,
    inclination => '98.4884',
    mm1 => '2.7e-07',
    raan => '95.7809',
    eccentricity => '4.84e-05',
    mm2 => 0,
    argperigee => '219.5421',
    orbit => 39312,
    meanmotion => '14.230981',
    id => 25397,
    meananomaly => '140.5711'
  },
  'PO-34' => {
    elset => 382,
    epoch => '6032.79428813',
    bstar => '2.3439e-05',
    number => 98064,
    inclination => '28.4582',
    mm1 => '6.67e-06',
    raan => '216.841',
    eccentricity => '0.0005429',
    mm2 => 0,
    argperigee => '201.5769',
    orbit => 40147,
    meanmotion => '15.16602026',
    id => 25520,
    meananomaly => '158.4589'
  },
  'NOAA-11' => {
    elset => 974,
    epoch => '6033.5660856',
    bstar => 0,
    number => 88089,
    inclination => '98.8319',
    mm1 => '-7.6e-07',
    raan => '123.4288',
    eccentricity => '0.0011654',
    mm2 => 0,
    argperigee => '17.3117',
    orbit => 89550,
    meanmotion => '14.14789192',
    id => 19531,
    meananomaly => '342.8934'
  },
  'OKEAN-4' => {
    elset => 854,
    epoch => '6033.75290085',
    bstar => '2.2207e-05',
    number => 94066,
    inclination => '82.537',
    mm1 => '2.03e-06',
    raan => '42.3855',
    eccentricity => '0.002406',
    mm2 => 0,
    argperigee => '96.7261',
    orbit => 61006,
    meanmotion => '14.82304334',
    id => 23317,
    meananomaly => '263.6704'
  },
  'KO-23' => {
    elset => 701,
    epoch => '6033.49149796',
    bstar => '0.0001',
    number => 92052,
    inclination => '66.0853',
    mm1 => '-3.7e-07',
    raan => '24.1364',
    eccentricity => '0.0007192',
    mm2 => 0,
    argperigee => '200.0889',
    orbit => 63321,
    meanmotion => '12.86435108',
    id => 22077,
    meananomaly => '159.9847'
  }
);
1;
